[{"OBJECT_NAME":"HULIANWANG DIGUI-33","OBJECT_ID":"2025-121D","EPOCH":"2026-03-09T22:48:40.372992","MEAN_MOTION":13.24425556,"ECCENTRICITY":0.00020458,"INCLINATION":86.4976,"RA_OF_ASC_NODE":47.0715,"ARG_OF_PERICENTER":75.4617,"MEAN_ANOMALY":284.6744,"EPHEMERIS_TYPE":0,"CLASSIFICATION_TYPE":"U","NORAD_CAT_ID":64286,"ELEMENT_SET_NO":999,"REV_AT_EPOCH":3702,"BSTAR":7.9827433e-5,"MEAN_MOTION_DOT":4.9e-7,"MEAN_MOTION_DDOT":0},{"OBJECT_NAME":"THOR ABLESTAR DEB","OBJECT_ID":"1961-015GJ","EPOCH":"2026-03-09T13:29:21.435360","MEAN_MOTION":13.36434189,"ECCENTRICITY":0.02111931,"INCLINATION":66.693,"RA_OF_ASC_NODE":118.522,"ARG_OF_PERICENTER":28.4969,"MEAN_ANOMALY":88.4018,"EPHEMERIS_TYPE":0,"CLASSIFICATION_TYPE":"U","NORAD_CAT_ID":549,"ELEMENT_SET_NO":999,"REV_AT_EPOCH":14960,"BSTAR":0.00024224303,"MEAN_MOTION_DOT":7.5e-7,"MEAN_MOTION_DDOT":0}]
